ASTROCAST-0404          
1 55112U 23001DH  26068.80836714  .00008870  00000+0  34436-3 0  9994
2 55112  97.5646 161.5422 0006847   1.1317 358.9936 15.26309833129366
STARLINK-34028          
1 63973U 25099X   26068.36251445  .00026121  00000+0  95511-3 0  9990
2 63973  43.0007 174.8226 0001832 273.3040  86.7602 15.27589150 47325
